{
 "generated_at": "2026-06-18T09:14:20Z",
 "sources": [
  {
   "name": "CelesTrak",
   "url": "https://celestrak.org/NORAD/elements/",
   "license": "frei verfügbar; Attribution. Ursprünglich USSPACECOM/Space-Track."
  },
  {
   "name": "GCAT (J. McDowell, planet4589.org)",
   "url": "https://planet4589.org/space/gcat/",
   "license": "CC-BY 4.0"
  }
 ],
 "satellites": [
  {
   "norad": 60453,
   "name": "LEGION 4",
   "intl": "2024-146B",
   "group": "resource",
   "gcat": {
    "class": "B",
    "category": "IMG",
    "owner": "MAXARI",
    "state": "US"
   },
   "omm": {
    "OBJECT_NAME": "LEGION 4",
    "OBJECT_ID": "2024-146B",
    "EPOCH": "2026-06-17T22:11:38.504544",
    "MEAN_MOTION": 15.16036201,
    "ECCENTRICITY": 0.00136964,
    "INCLINATION": 45.001,
    "RA_OF_ASC_NODE": 118.5095,
    "ARG_OF_PERICENTER": 312.3124,
    "MEAN_ANOMALY": 47.6594,
    "EPHEMERIS_TYPE": 0,
    "CLASSIFICATION_TYPE": "U",
    "NORAD_CAT_ID": 60453,
    "ELEMENT_SET_NO": 999,
    "REV_AT_EPOCH": 10098,
    "BSTAR": 0.00020047157,
    "MEAN_MOTION_DOT": 0.00003663,
    "MEAN_MOTION_DDOT": 0
   }
  },
  {
   "norad": 51284,
   "name": "LUDI TANCE 1-01A (L-SAR 01A)",
   "intl": "2022-007A",
   "group": "sar",
   "gcat": {
    "class": "C",
    "category": "IMG-R",
    "owner": "SAST",
    "state": "CN"
   },
   "omm": {
    "OBJECT_NAME": "LUDI TANCE 1-01A (L-SAR 01A)",
    "OBJECT_ID": "2022-007A",
    "EPOCH": "2026-06-17T22:05:41.636256",
    "MEAN_MOTION": 14.8840762,
    "ECCENTRICITY": 0.00015975,
    "INCLINATION": 97.8096,
    "RA_OF_ASC_NODE": 176.33,
    "ARG_OF_PERICENTER": 89.1136,
    "MEAN_ANOMALY": 271.0264,
    "EPHEMERIS_TYPE": 0,
    "CLASSIFICATION_TYPE": "U",
    "NORAD_CAT_ID": 51284,
    "ELEMENT_SET_NO": 999,
    "REV_AT_EPOCH": 23858,
    "BSTAR": 0.000057721819,
    "MEAN_MOTION_DOT": 0.00000481,
    "MEAN_MOTION_DDOT": 0
   }
  },
  {
   "norad": 51822,
   "name": "LUDI TANCE 1-01B (L-SAR 01B)",
   "intl": "2022-018A",
   "group": "sar",
   "gcat": {
    "class": "C",
    "category": "IMG-R",
    "owner": "SAST",
    "state": "CN"
   },
   "omm": {
    "OBJECT_NAME": "LUDI TANCE 1-01B (L-SAR 01B)",
    "OBJECT_ID": "2022-018A",
    "EPOCH": "2026-06-17T22:54:05.288832",
    "MEAN_MOTION": 14.88419338,
    "ECCENTRICITY": 0.00016115,
    "INCLINATION": 97.8103,
    "RA_OF_ASC_NODE": 176.3598,
    "ARG_OF_PERICENTER": 92.3785,
    "MEAN_ANOMALY": 267.7617,
    "EPHEMERIS_TYPE": 0,
    "CLASSIFICATION_TYPE": "U",
    "NORAD_CAT_ID": 51822,
    "ELEMENT_SET_NO": 999,
    "REV_AT_EPOCH": 23382,
    "BSTAR": 0.000057287303,
    "MEAN_MOTION_DOT": 0.00000477,
    "MEAN_MOTION_DDOT": 0
   }
  },
  {
   "norad": 57624,
   "name": "LUDI TANCE-4 01A",
   "intl": "2023-120A",
   "group": "sar",
   "gcat": {
    "class": "D",
    "category": "IMG-R",
    "owner": "CNSA",
    "state": "CN"
   },
   "omm": {
    "OBJECT_NAME": "LUDI TANCE-4 01A",
    "OBJECT_ID": "2023-120A",
    "EPOCH": "2026-06-17T02:33:21.719232",
    "MEAN_MOTION": 1.00268813,
    "ECCENTRICITY": 0.0001162,
    "INCLINATION": 15.1025,
    "RA_OF_ASC_NODE": 193.9642,
    "ARG_OF_PERICENTER": 44.3145,
    "MEAN_ANOMALY": 155.1098,
    "EPHEMERIS_TYPE": 0,
    "CLASSIFICATION_TYPE": "U",
    "NORAD_CAT_ID": 57624,
    "ELEMENT_SET_NO": 999,
    "REV_AT_EPOCH": 1054,
    "BSTAR": 0,
    "MEAN_MOTION_DOT": -0.00000176,
    "MEAN_MOTION_DDOT": 0
   }
  },
  {
   "norad": 27004,
   "name": "MAROC-TUBSAT",
   "intl": "2001-056D",
   "group": "resource",
   "gcat": {
    "class": null,
    "category": null,
    "owner": null,
    "state": null
   },
   "omm": {
    "OBJECT_NAME": "MAROC-TUBSAT",
    "OBJECT_ID": "2001-056D",
    "EPOCH": "2026-06-17T23:19:44.751936",
    "MEAN_MOTION": 13.7026248,
    "ECCENTRICITY": 0.00203545,
    "INCLINATION": 99.8082,
    "RA_OF_ASC_NODE": 345.8463,
    "ARG_OF_PERICENTER": 139.2954,
    "MEAN_ANOMALY": 24.3997,
    "EPHEMERIS_TYPE": 0,
    "CLASSIFICATION_TYPE": "U",
    "NORAD_CAT_ID": 27004,
    "ELEMENT_SET_NO": 999,
    "REV_AT_EPOCH": 22629,
    "BSTAR": 0.000007010739,
    "MEAN_MOTION_DOT": -4e-7,
    "MEAN_MOTION_DDOT": 0
   }
  },
  {
   "norad": 40069,
   "name": "METEOR-M 2",
   "intl": "2014-037A",
   "group": "weather",
   "gcat": {
    "class": "C",
    "category": "MET",
    "owner": "RGMS/VNIIEMI",
    "state": "RU"
   },
   "omm": {
    "OBJECT_NAME": "METEOR-M 2",
    "OBJECT_ID": "2014-037A",
    "EPOCH": "2026-06-17T22:04:38.815680",
    "MEAN_MOTION": 14.214613,
    "ECCENTRICITY": 0.00067218,
    "INCLINATION": 98.5113,
    "RA_OF_ASC_NODE": 144.6325,
    "ARG_OF_PERICENTER": 42.5327,
    "MEAN_ANOMALY": 317.637,
    "EPHEMERIS_TYPE": 0,
    "CLASSIFICATION_TYPE": "U",
    "NORAD_CAT_ID": 40069,
    "ELEMENT_SET_NO": 999,
    "REV_AT_EPOCH": 61942,
    "BSTAR": 0.000030058302,
    "MEAN_MOTION_DOT": 2.4e-7,
    "MEAN_MOTION_DDOT": 0
   }
  },
  {
   "norad": 44387,
   "name": "METEOR-M2 2",
   "intl": "2019-038A",
   "group": "weather",
   "gcat": {
    "class": "C",
    "category": "MET",
    "owner": "RGMS/VNIIEMI",
    "state": "RU"
   },
   "omm": {
    "OBJECT_NAME": "METEOR-M2 2",
    "OBJECT_ID": "2019-038A",
    "EPOCH": "2026-06-17T22:43:52.380192",
    "MEAN_MOTION": 14.24366072,
    "ECCENTRICITY": 0.00020306,
    "INCLINATION": 98.9141,
    "RA_OF_ASC_NODE": 156.2438,
    "ARG_OF_PERICENTER": 46.5969,
    "MEAN_ANOMALY": 313.5378,
    "EPHEMERIS_TYPE": 0,
    "CLASSIFICATION_TYPE": "U",
    "NORAD_CAT_ID": 44387,
    "ELEMENT_SET_NO": 999,
    "REV_AT_EPOCH": 36140,
    "BSTAR": 0.000030794292,
    "MEAN_MOTION_DOT": 2.5e-7,
    "MEAN_MOTION_DDOT": 0
   }
  },
  {
   "norad": 57166,
   "name": "METEOR-M2 3",
   "intl": "2023-091A",
   "group": "weather",
   "gcat": {
    "class": "C",
    "category": "MET",
    "owner": "RGMS/VNIIEMI",
    "state": "RU"
   },
   "omm": {
    "OBJECT_NAME": "METEOR-M2 3",
    "OBJECT_ID": "2023-091A",
    "EPOCH": "2026-06-17T22:35:55.891968",
    "MEAN_MOTION": 14.24046746,
    "ECCENTRICITY": 0.00043468,
    "INCLINATION": 98.6099,
    "RA_OF_ASC_NODE": 223.9043,
    "ARG_OF_PERICENTER": 153.7654,
    "MEAN_ANOMALY": 206.3746,
    "EPHEMERIS_TYPE": 0,
    "CLASSIFICATION_TYPE": "U",
    "NORAD_CAT_ID": 57166,
    "ELEMENT_SET_NO": 999,
    "REV_AT_EPOCH": 15462,
    "BSTAR": -0.000030099346,
    "MEAN_MOTION_DOT": -0.00000112,
    "MEAN_MOTION_DDOT": 0
   }
  },
  {
   "norad": 59051,
   "name": "METEOR-M2 4",
   "intl": "2024-039A",
   "group": "weather",
   "gcat": {
    "class": "C",
    "category": "MET",
    "owner": "RGMS/VNIIEMI",
    "state": "RU"
   },
   "omm": {
    "OBJECT_NAME": "METEOR-M2 4",
    "OBJECT_ID": "2024-039A",
    "EPOCH": "2026-06-17T22:58:21.717984",
    "MEAN_MOTION": 14.2242963,
    "ECCENTRICITY": 0.0007336,
    "INCLINATION": 98.701,
    "RA_OF_ASC_NODE": 128.2455,
    "ARG_OF_PERICENTER": 158.8228,
    "MEAN_ANOMALY": 201.3255,
    "EPHEMERIS_TYPE": 0,
    "CLASSIFICATION_TYPE": "U",
    "NORAD_CAT_ID": 59051,
    "ELEMENT_SET_NO": 999,
    "REV_AT_EPOCH": 11937,
    "BSTAR": 0.000024841012,
    "MEAN_MOTION_DOT": 1.2e-7,
    "MEAN_MOTION_DDOT": 0
   }
  },
  {
   "norad": 38552,
   "name": "METEOSAT-10 (MSG-3)",
   "intl": "2012-035B",
   "group": "weather",
   "gcat": {
    "class": "C",
    "category": "MET",
    "owner": "EUMET",
    "state": "I-EUM"
   },
   "omm": {
    "OBJECT_NAME": "METEOSAT-10 (MSG-3)",
    "OBJECT_ID": "2012-035B",
    "EPOCH": "2026-06-16T22:04:38.846784",
    "MEAN_MOTION": 1.00276823,
    "ECCENTRICITY": 0.0001486,
    "INCLINATION": 4.6715,
    "RA_OF_ASC_NODE": 61.0232,
    "ARG_OF_PERICENTER": 328.8582,
    "MEAN_ANOMALY": 206.8187,
    "EPHEMERIS_TYPE": 0,
    "CLASSIFICATION_TYPE": "U",
    "NORAD_CAT_ID": 38552,
    "ELEMENT_SET_NO": 999,
    "REV_AT_EPOCH": 5085,
    "BSTAR": 0,
    "MEAN_MOTION_DOT": -9e-8,
    "MEAN_MOTION_DDOT": 0
   }
  }
 ]
}
